[{"OBJECT_NAME":"STARLINK-31427","OBJECT_ID":"2024-049L","EPOCH":"2026-03-09T05:48:09.256320","MEAN_MOTION":15.2757412,"ECCENTRICITY":8.29e-5,"INCLINATION":42.9998,"RA_OF_ASC_NODE":146.3751,"ARG_OF_PERICENTER":255.3591,"MEAN_ANOMALY":104.7169,"EPHEMERIS_TYPE":0,"CLASSIFICATION_TYPE":"U","NORAD_CAT_ID":59241,"ELEMENT_SET_NO":999,"REV_AT_EPOCH":11233,"BSTAR":-7.0464e-5,"MEAN_MOTION_DOT":-2.2e-5,"MEAN_MOTION_DDOT":0},{"OBJECT_NAME":"WT 1B","OBJECT_ID":"2019-032G","EPOCH":"2026-03-09T21:42:21.881088","MEAN_MOTION":15.25021485,"ECCENTRICITY":0.0008099,"INCLINATION":44.9738,"RA_OF_ASC_NODE":242.0209,"ARG_OF_PERICENTER":49.7728,"MEAN_ANOMALY":310.3861,"EPHEMERIS_TYPE":0,"CLASSIFICATION_TYPE":"U","NORAD_CAT_ID":44316,"ELEMENT_SET_NO":999,"REV_AT_EPOCH":37191,"BSTAR":0.00065022477,"MEAN_MOTION_DOT":0.00016297,"MEAN_MOTION_DDOT":0}]
